{"type": "FeatureCollection", "features": [ {"type": "Feature", "properties": {"norad_id": 66905, "name": "STARLINK-36075", "group": "last-30-days", "lat": 6.617562888864361, "lon": 73.9575369991462, "alt_km": 292.1361680508944, "timestamp": "2025-12-13T16:48:31.467720+00:00", "meta": {"OBJECT_NAME": "STARLINK-36075", "OBJECT_ID": "2025-283AD", "EPOCH": "2025-12-12T20:00:01.999872", "MEAN_MOTION": 15.95820239, "ECCENTRICITY": 0.00011488, "INCLINATION": 53.154, "RA_OF_ASC_NODE": 73.4022, "ARG_OF_PERICENTER": 50.7356, "MEAN_ANOMALY": 17.4636, "EPHEMERIS_TYPE": 0, "CLASSIFICATION_TYPE": "U", "NORAD_CAT_ID": 66905, "ELEMENT_SET_NO": 999, "REV_AT_EPOCH": 244, "BSTAR": -0.0033892872, "MEAN_MOTION_DOT": -0.01406491, "MEAN_MOTION_DDOT": 0.00059093015}, "tle": {"line1": "1 66905U 25283AD  25346.83335648 -.01406491  59093-3 -33893-2 0  9990", "line2": "2 66905  53.1540  73.4022 0001148  50.7356  17.4636 15.95820239  2445"}}, "geometry": {"type": "Point", "coordinates": [73.9575369991462, 6.617562888864361]}}, {"type": "Feature", "properties": {"norad_id": 66906, "name": "1998-067XS", "group": "last-30-days", "lat": 18.7909627182184, "lon": 153.29175646019272, "alt_km": 415.3075587358044, "timestamp": "2025-12-13T16:48:31.467731+00:00", "meta": {"OBJECT_NAME": "1998-067XS", "OBJECT_ID": "1998-067XS", "EPOCH": "2025-12-12T17:30:10.785600", "MEAN_MOTION": 15.50562979, "ECCENTRICITY": 0.00036025, "INCLINATION": 51.6293, "RA_OF_ASC_NODE": 142.4703, "ARG_OF_PERICENTER": 202.1444, "MEAN_ANOMALY": 157.939, "EPHEMERIS_TYPE": 0, "CLASSIFICATION_TYPE": "U", "NORAD_CAT_ID": 66906, "ELEMENT_SET_NO": 999, "REV_AT_EPOCH": 161, "BSTAR": 0.00063717141, "MEAN_MOTION_DOT": 0.00036816, "MEAN_MOTION_DDOT": 0}, "tle": {"line1": "1 66906U 98067XS  25346.72929150  .00036816  00000+0  63717-3 0  9992", "line2": "2 66906  51.6293 142.4703 0003602 202.1444 157.9390 15.50562979  1615"}}, "geometry": {"type": "Point", "coordinates": [153.29175646019272, 18.7909627182184]}}, {"type": "Feature", "properties": {"norad_id": 66907, "name": "1998-067XT", "group": "last-30-days", "lat": 32.092495863794724, "lon": 167.40758399083924, "alt_km": 410.9052870705309, "timestamp": "2025-12-13T16:48:31.467741+00:00", "meta": {"OBJECT_NAME": "1998-067XT", "OBJECT_ID": "1998-067XT", "EPOCH": "2025-12-12T17:26:16.026432", "MEAN_MOTION": 15.5143678, "ECCENTRICITY": 0.00044769, "INCLINATION": 51.6298, "RA_OF_ASC_NODE": 142.4529, "ARG_OF_PERICENTER": 226.787, "MEAN_ANOMALY": 133.2746, "EPHEMERIS_TYPE": 0, "CLASSIFICATION_TYPE": "U", "NORAD_CAT_ID": 66907, "ELEMENT_SET_NO": 999, "REV_AT_EPOCH": 161, "BSTAR": 0.0013978666, "MEAN_MOTION_DOT": 0.0008442, "MEAN_MOTION_DDOT": 0}, "tle": {"line1": "1 66907U 98067XT  25346.72657438  .00084420  00000+0  13979-2 0  9998", "line2": "2 66907  51.6298 142.4529 0004476 226.7870 133.2746 15.51436780  1615"}}, "geometry": {"type": "Point", "coordinates": [167.40758399083924, 32.092495863794724]}}, {"type": "Feature", "properties": {"norad_id": 66908, "name": "1998-067XU", "group": "last-30-days", "lat": 33.54969363334022, "lon": 169.30553242152985, "alt_km": 410.46183835680586, "timestamp": "2025-12-13T16:48:31.467751+00:00", "meta": {"OBJECT_NAME": "1998-067XU", "OBJECT_ID": "1998-067XU", "EPOCH": "2025-12-12T22:04:02.533728", "MEAN_MOTION": 15.51556229, "ECCENTRICITY": 0.0004575, "INCLINATION": 51.6297, "RA_OF_ASC_NODE": 141.4904, "ARG_OF_PERICENTER": 226.416, "MEAN_ANOMALY": 133.645, "EPHEMERIS_TYPE": 0, "CLASSIFICATION_TYPE": "U", "NORAD_CAT_ID": 66908, "ELEMENT_SET_NO": 999, "REV_AT_EPOCH": 164, "BSTAR": 0.0015461789, "MEAN_MOTION_DOT": 0.00093943, "MEAN_MOTION_DDOT": 0}, "tle": {"line1": "1 66908U 98067XU  25346.91947377  .00093943  00000+0  15462-2 0  9993", "line2": "2 66908  51.6297 141.4904 0004575 226.4160 133.6450 15.51556229  1640"}}, "geometry": {"type": "Point", "coordinates": [169.30553242152985, 33.54969363334022]}}, {"type": "Feature", "properties": {"norad_id": 66909, "name": "SILVERSAT", "group": "last-30-days", "lat": 35.14615150746126, "lon": 171.50847932355364, "alt_km": 409.8099819786312, "timestamp": "2025-12-13T16:48:31.467761+00:00", "meta": {"OBJECT_NAME": "SILVERSAT", "OBJECT_ID": "1998-067XV", "EPOCH": "2025-12-12T22:03:29.727648", "MEAN_MOTION": 15.51661311, "ECCENTRICITY": 0.00044499, "INCLINATION": 51.6297, "RA_OF_ASC_NODE": 141.4878, "ARG_OF_PERICENTER": 228.6613, "MEAN_ANOMALY": 131.3994, "EPHEMERIS_TYPE": 0, "CLASSIFICATION_TYPE": "U", "NORAD_CAT_ID": 66909, "ELEMENT_SET_NO": 999, "REV_AT_EPOCH": 164, "BSTAR": 0.0015570359, "MEAN_MOTION_DOT": 0.00094974, "MEAN_MOTION_DDOT": 0}, "tle": {"line1": "1 66909U 98067XV  25346.91909407  .00094974  00000+0  15570-2 0  9991", "line2": "2 66909  51.6297 141.4878 0004449 228.6613 131.3994 15.51661311  1645"}}, "geometry": {"type": "Point", "coordinates": [171.50847932355364, 35.14615150746126]}}, {"type": "Feature", "properties": {"norad_id": 66910, "name": "1998-067XW", "group": "last-30-days", "lat": 40.510522013886145, "lon": -179.807526675296, "alt_km": 408.93825271866353, "timestamp": "2025-12-13T16:48:31.467772+00:00", "meta": {"OBJECT_NAME": "1998-067XW", "OBJECT_ID": "1998-067XW", "EPOCH": "2025-12-12T20:28:35.609952", "MEAN_MOTION": 15.51770354, "ECCENTRICITY": 0.00052525, "INCLINATION": 51.6298, "RA_OF_ASC_NODE": 141.7982, "ARG_OF_PERICENTER": 209.4111, "MEAN_ANOMALY": 150.6584, "EPHEMERIS_TYPE": 0, "CLASSIFICATION_TYPE": "U", "NORAD_CAT_ID": 66910, "ELEMENT_SET_NO": 999, "REV_AT_EPOCH": 163, "BSTAR": 0.001333891, "MEAN_MOTION_DOT": 0.00081487, "MEAN_MOTION_DDOT": 0}, "tle": {"line1": "1 66910U 98067XW  25346.85318993  .00081487  00000+0  13339-2 0  9996", "line2": "2 66910  51.6298 141.7982 0005252 209.4111 150.6584 15.51770354  1636"}}, "geometry": {"type": "Point", "coordinates": [-179.807526675296, 40.510522013886145]}}, {"type": "Feature", "properties": {"norad_id": 66911, "name": "1998-067XX", "group": "last-30-days", "lat": 43.21676957329338, "lon": -174.31008539952347, "alt_km": 407.4585595383869, "timestamp": "2025-12-13T16:48:31.467782+00:00", "meta": {"OBJECT_NAME": "1998-067XX", "OBJECT_ID": "1998-067XX", "EPOCH": "2025-12-12T17:22:05.659968", "MEAN_MOTION": 15.51996459, "ECCENTRICITY": 0.0004979, "INCLINATION": 51.6296, "RA_OF_ASC_NODE": 142.4333, "ARG_OF_PERICENTER": 210.3883, "MEAN_ANOMALY": 149.6819, "EPHEMERIS_TYPE": 0, "CLASSIFICATION_TYPE": "U", "NORAD_CAT_ID": 66911, "ELEMENT_SET_NO": 999, "REV_AT_EPOCH": 160, "BSTAR": 0.0015692424, "MEAN_MOTION_DOT": 0.00096916, "MEAN_MOTION_DDOT": 0}, "tle": {"line1": "1 66911U 98067XX  25346.72367662  .00096916  00000+0  15692-2 0  9997", "line2": "2 66911  51.6296 142.4333 0004979 210.3883 149.6819 15.51996459  1607"}}, "geometry": {"type": "Point", "coordinates": [-174.31008539952347, 43.21676957329338]}}, {"type": "Feature", "properties": {"norad_id": 66912, "name": "1998-067XY", "group": "last-30-days", "lat": 27.565278778971866, "lon": 162.05804434251596, "alt_km": 412.6828441237285, "timestamp": "2025-12-13T16:48:31.467792+00:00", "meta": {"OBJECT_NAME": "1998-067XY", "OBJECT_ID": "1998-067XY", "EPOCH": "2025-12-12T17:27:38.564352", "MEAN_MOTION": 15.5112646, "ECCENTRICITY": 0.00045766, "INCLINATION": 51.63, "RA_OF_ASC_NODE": 142.4585, "ARG_OF_PERICENTER": 223.461, "MEAN_ANOMALY": 136.6019, "EPHEMERIS_TYPE": 0, "CLASSIFICATION_TYPE": "U", "NORAD_CAT_ID": 66912, "ELEMENT_SET_NO": 999, "REV_AT_EPOCH": 160, "BSTAR": 0.0011286003, "MEAN_MOTION_DOT": 0.00067169, "MEAN_MOTION_DDOT": 0}, "tle": {"line1": "1 66912U 98067XY  25346.72752968  .00067169  00000+0  11286-2 0  9998", "line2": "2 66912  51.6300 142.4585 0004576 223.4610 136.6019 15.51126460  1604"}}, "geometry": {"type": "Point", "coordinates": [162.05804434251596, 27.565278778971866]}}, {"type": "Feature", "properties": {"norad_id": 66913, "name": "2025-284A", "group": "last-30-days", "lat": -80.3961801308801, "lon": 39.62124539682139, "alt_km": 513.1392031205405, "timestamp": "2025-12-13T16:48:31.467806+00:00", "meta": {"OBJECT_NAME": "2025-284A", "OBJECT_ID": "2025-284A", "EPOCH": "2025-12-12T22:13:57.389088", "MEAN_MOTION": 15.18972069, "ECCENTRICITY": 0.00120417, "INCLINATION": 80.4044, "RA_OF_ASC_NODE": 129.5282, "ARG_OF_PERICENTER": 204.1286, "MEAN_ANOMALY": 155.9379, "EPHEMERIS_TYPE": 0, "CLASSIFICATION_TYPE": "U", "NORAD_CAT_ID": 66913, "ELEMENT_SET_NO": 999, "REV_AT_EPOCH": 115, "BSTAR": 0.00062774238, "MEAN_MOTION_DOT": 0.00013177, "MEAN_MOTION_DDOT": 0}, "tle": {"line1": "1 66913U 25284A   25346.92635867  .00013177  00000+0  62774-3 0  9999", "line2": "2 66913  80.4044 129.5282 0012041 204.1286 155.9379 15.18972069  1151"}}, "geometry": {"type": "Point", "coordinates": [39.62124539682139, -80.3961801308801]}}, {"type": "Feature", "properties": {"norad_id": 66914, "name": "2025-284B", "group": "last-30-days", "lat": -80.18313746201304, "lon": 50.690939956203756, "alt_km": 511.2577104389329, "timestamp": "2025-12-13T16:48:31.467817+00:00", "meta": {"OBJECT_NAME": "2025-284B", "OBJECT_ID": "2025-284B", "EPOCH": "2025-12-12T23:48:15.313824", "MEAN_MOTION": 15.18924464, "ECCENTRICITY": 0.00083391, "INCLINATION": 80.4052, "RA_OF_ASC_NODE": 129.4462, "ARG_OF_PERICENTER": 246.2962, "MEAN_ANOMALY": 113.7391, "EPHEMERIS_TYPE": 0, "CLASSIFICATION_TYPE": "U", "NORAD_CAT_ID": 66914, "ELEMENT_SET_NO": 999, "REV_AT_EPOCH": 116, "BSTAR": 0.00061062455, "MEAN_MOTION_DOT": 0.00012788, "MEAN_MOTION_DDOT": 0}, "tle": {"line1": "1 66914U 25284B   25346.99184391  .00012788  00000+0  61062-3 0  9994", "line2": "2 66914  80.4052 129.4462 0008339 246.2962 113.7391 15.18924464  1166"}}, "geometry": {"type": "Point", "coordinates": [50.690939956203756, -80.18313746201304]}}]}